[{"OBJECT_NAME":"STARLINK-31300","OBJECT_ID":"2024-020C","EPOCH":"2026-03-09T22:45:50.138208","MEAN_MOTION":15.30221885,"ECCENTRICITY":9.858e-5,"INCLINATION":53.1619,"RA_OF_ASC_NODE":321.0131,"ARG_OF_PERICENTER":66.7305,"MEAN_ANOMALY":293.38,"EPHEMERIS_TYPE":0,"CLASSIFICATION_TYPE":"U","NORAD_CAT_ID":58878,"ELEMENT_SET_NO":999,"REV_AT_EPOCH":11811,"BSTAR":-0.00025098982,"MEAN_MOTION_DOT":-7.79e-5,"MEAN_MOTION_DDOT":0},{"OBJECT_NAME":"NUSAT-49 (KLARA DAN VON NEUMANN)","OBJECT_ID":"2024-149AJ","EPOCH":"2026-03-09T19:09:16.004160","MEAN_MOTION":15.30828857,"ECCENTRICITY":0.00011321,"INCLINATION":97.3807,"RA_OF_ASC_NODE":150.738,"ARG_OF_PERICENTER":286.7761,"MEAN_ANOMALY":73.3356,"EPHEMERIS_TYPE":0,"CLASSIFICATION_TYPE":"U","NORAD_CAT_ID":60500,"ELEMENT_SET_NO":999,"REV_AT_EPOCH":8693,"BSTAR":0.00043568345,"MEAN_MOTION_DOT":0.00012912,"MEAN_MOTION_DDOT":0}]
